STARLINK-2654           
1 48454U 21040AC  26068.61511019  .00007068  00000+0  25046-3 0  9998
2 48454  53.1603 178.4674 0001338  68.4218 291.6926 15.30209025266675
NUSAT-50 (NANCY ROMAN)  
1 60493U 24149AB  26068.80227738  .00012094  00000+0  42252-3 0  9994
2 60493  97.3817 150.7693 0002523 238.0469 122.0527 15.29713355 86930
